STARLINK-4094
1 53147U 22083R   24101.32766734  .00001079  00000+0  85893-4 0  9994
2 53147  53.2178  69.1855 0001316  94.6241 265.4902 15.08843328 96420
STARLINK-31274
1 59078U 24041E   24101.55841754 -.00000167  00000+0  34497-5 0  9993
2 59078  42.9966 287.1693 0000890 265.6191  94.4558 15.25906513  7582
STARLINK-31409
1 59299U 24056D   24101.50001157 -.00002888  00000+0 -16621-4 0  9995
2 59299  43.0011 259.6609 0001774 261.5491 147.0643 15.73808942  3958
STARLINK-3255
1 50201U 21125AX  24101.50480562  .00001326  00000+0  10140-3 0  9997
2 50201  53.2153 133.4024 0001418  87.0358 273.0796 15.08846740130855
STARLINK-2667
1 48663U 21044AB  24101.14711049  .00012709  00000+0  86977-3 0  9991
2 48663  53.0561   7.4938 0001605 101.6200 258.4969 15.06432970159401
STARLINK-30304
1 57808U 23138A   24101.22125832  .00000869  00000+0  79415-4 0  9990
2 57808  43.0055  71.7463 0000363 275.6276  84.4525 15.02528537 33587
STARLINK-2125
1 47725U 21017D   24101.17937396  .00000999  00000+0  85936-4 0  9990
2 47725  53.0547  97.3495 0001513  91.6281 268.4881 15.06400948171952
STARLINK-5243
1 54167U 22141L   24100.87868188  .00003962  00000+0  26683-3 0  9991
2 54167  53.2148 270.9836 0001094  89.2261 270.8856 15.08849845 80214
STARLINK-2248
1 48591U 21041AQ  24100.91667824  .01163957  00000+0  13846-1 0  9999
2 48591  53.0557  24.4828 0001092 112.4686  40.5113 15.57754841  5783
STARLINK-5833
1 55773U 23028AJ  24101.51458692  .00000507  00000+0  50292-4 0  9993
2 55773  70.0002 184.7889 0003131 269.0801  90.9999 14.98336545 61951
STARLINK-6267
1 56400U 23061AC  24101.48267394  .00002076  00000+0  16870-3 0  9997
2 56400  43.0073  18.5507 0001193 268.9221  91.1484 15.02545473 52161
STARLINK-1166
1 45060U 20006S   24101.19181535  .00014668  00000+0  10006-2 0  9997
2 45060  53.0542 182.2950 0001187 101.7390 258.3733 15.06434598231520
STARLINK-5755
1 55600U 23020AH  24101.52340950  .00001223  00000+0  10555-3 0  9995
2 55600  43.0030 185.5925 0001119 276.3590  83.7125 15.02542723 64048
STARLINK-1620
1 46149U 20057AJ  24100.99575138 -.02042939  00000+0 -14867+0 0  9997
2 46149  53.0491 192.8660 0012489 148.1530 212.0217 15.07269570201703
STARLINK-4372
1 53233U 22084AW  24101.13114314  .00000409  00000+0  36428-4 0  9997
2 53233  97.6575 162.9384 0001254 195.3220 164.7966 15.01259238 94518
STARLINK-3603
1 51816U 22017BA  24100.74952428  .00000228  00000+0  32446-4 0  9995
2 51816  53.2182 227.0245 0001568  94.8814 265.2357 15.08836920118619
STARLINK-30580
1 58115U 23161U   24101.44347838  .00034440  00000+0  12494-2 0  9998
2 58115  53.1169 166.9920 0001108  77.2913 282.8210 15.28042409 27411
STARLINK-30586
1 58084U 23160K   24101.17875884  .00001241  00000+0  10693-3 0  9992
2 58084  43.0024 275.7697 0001390 270.4086  89.6597 15.02535338 27865
STARLINK-4363
1 53220U 22084AH  24101.42157572  .00000270  00000+0  25632-4 0  9999
2 53220  97.6544 163.2207 0000807  99.7552 260.3763 15.01262177 94565
STARLINK-1143
1 45179U 20012B   24101.54337568  .00000817  00000+0  75261-4 0  9990
2 45179  53.0529 301.0027 0001805  84.4032 275.7162 15.05584614228955
STARLINK-3594
1 51895U 22022AV  24101.43026253 -.00000733  00000+0 -27990-4 0  9994
2 51895  53.2129 253.7233 0001870 100.8738 259.2464 15.08829864117833
STARLINK-31602
1 59202U 24046B   24101.38338061 -.00001668  00000+0 -22797-4 0  9997
2 59202  53.1594 172.5548 0001513  82.1745 277.9435 15.48324686  5724
STARLINK-4545
1 53421U 22097AK  24101.17863396  .00001996  00000+0  14348-3 0  9993
2 53421  53.2197   9.8603 0001428  85.9045 274.2111 15.08840859 92711
STARLINK-1172
1 45074U 20006AG  24101.43692339  .00003705  00000+0  26742-3 0  9993
2 45074  53.0531 161.1927 0001494  92.5978 267.5182 15.06408102231839
STARLINK-2466
1 48125U 21027AK  24101.16373886  .00003682  00000+0  26590-3 0  9995
2 48125  53.0547  67.6591 0001673  98.2288 261.8891 15.06403466166737
STARLINK-3847
1 52333U 22045C   24101.21957000  .00000219  00000+0  31872-4 0  9997
2 52333  53.2166 104.6749 0001480  90.8026 269.3136 15.08839130110189
STARLINK-3905
1 52495U 22049AW  24100.85893308  .00000878  00000+0  73256-4 0  9992
2 52495  53.2182 306.2934 0001337  88.9142 271.2004 15.08836300106895
STARLINK-31124
1 58674U 23211H   24100.90716846  .00053294  00000+0  20319-2 0  9996
2 58674  43.0012  65.7340 0001489 254.3281 105.7406 15.25919138 15669
STARLINK-5530
1 56494U 23064AY  24100.91653554  .00000133  00000+0  18976-4 0  9999
2 56494  69.9999  66.2875 0002932 268.2383  91.8440 14.98331013 51569
STARLINK-30897
1 58360U 23177K   24101.22208313 -.00001815  00000+0 -11940-3 0  9995
2 58360  43.0044 187.2469 0001676 272.5950  87.4700 15.02512813 23173
STARLINK-4273
1 53181U 22083BB  24101.45735966  .00001360  00000+0  10352-3 0  9999
2 53181  53.2195  18.4020 0001453  97.7220 262.3937 15.08850677 97140
STARLINK-3334
1 50823U 22001W   24101.27477373  .00000483  00000+0  48428-4 0  9995
2 50823  53.2191  64.4274 0001494  95.8093 264.3070 15.08840844126250
STARLINK-31365
1 58973U 24031J   24101.51785147 -.00001019  00000+0 -24137-4 0  9991
2 58973  53.1589 299.3793 0001109  94.7679 265.3448 15.28018517  9649
STARLINK-2154
1 47741U 21017V   24101.58335648  .01204097  00000+0  12839-1 0  9990
2 47741  53.0531  99.5631 0001249  89.6256   2.6964 15.60999486171965
STARLINK-4253
1 53004U 22076U   24101.11055221  .00000013  00000+0  18937-4 0  9999
2 53004  53.2185 350.1637 0001351  82.4326 277.6820 15.08839886 97855
STARLINK-5679
1 55467U 23015U   24101.46965306  .00001547  00000+0  12961-3 0  9993
2 55467  43.0036 159.9159 0001223 264.4086  95.6616 15.02520070 65727
STARLINK-4440
1 53671U 22105Z   24101.42645195  .00002945  00000+0  23374-3 0  9997
2 53671  97.6570 343.2272 0002024  85.1164 275.0292 15.01270508 88758
STARLINK-3818
1 52340U 22045K   24101.22048899  .00000715  00000+0  63010-4 0  9993
2 52340  53.2172  94.6684 0001440  93.3328 266.7829 15.08843836110323
STARLINK-3100
1 49144U 21082Q   24101.39217156 -.00000414  00000+0 -26911-4 0  9990
2 49144  69.9967 255.0975 0003734 270.3748  89.6983 14.98325286141389
STARLINK-3528
1 51714U 22016A   24101.31157349 -.00000542  00000+0 -15938-4 0  9992
2 51714  53.2137 224.2605 0002296  97.1595 262.9658 15.08837368119061
STARLINK-1791
1 46692U 20073Y   24101.16877592  .00004803  00000+0  34098-3 0  9993
2 46692  53.0535 152.4006 0001174  90.7409 269.3714 15.06412131192110
STARLINK-1017
1 44723U 19074L   24101.21576959  .00000861  00000+0  76677-4 0  9994
2 44723  53.0538  82.1856 0001493  91.7093 268.4067 15.06399820243647
STARLINK-3926
1 52543U 22051L   24101.52134588 -.00002010  00000+0 -10826-3 0  9997
2 52543  53.2180  23.3199 0001345  81.4034 278.7110 15.08827959106119
STARLINK-2475
1 48133U 21027AT  24101.21899796  .00001676  00000+0  13139-3 0  9999
2 48133  53.0553  67.1710 0001481  94.5784 265.5374 15.06400672166742
STARLINK-3754
1 52350U 22045V   24101.39345004 -.00001182  00000+0 -56183-4 0  9994
2 52350  53.2165  93.8905 0001426  95.1305 264.9850 15.08833744110367
STARLINK-30094
1 56305U 23056V   24101.19178341 -.00000328  00000+0 -91714-5 0  9998
2 56305  43.0040  45.4556 0001180 261.6274  98.4434 15.02543617 54363
STARLINK-2525
1 48482U 21040BG  24101.19042541  .00002145  00000+0  16282-3 0  9990
2 48482  53.0541  97.2986 0001274  90.4820 269.6315 15.06404934161516
STARLINK-2015
1 47638U 21012U   24101.38992905 -.00004352  00000+0 -27326-3 0  9995
2 47638  53.0540 231.4042 0000942  94.3862 265.7235 15.06430694175551
STARLINK-3819
1 52349U 22045U   24101.20946245  .00007176  00000+0  46836-3 0  9996
2 52349  53.2160  94.7210 0001448  83.6801 276.4356 15.08850711110335
STARLINK-3119
1 49145U 21082R   24101.40837938  .00000154  00000+0  20684-4 0  9999
2 49145  70.0008 215.0557 0003093 272.8711  87.2094 14.98333068142369
STARLINK-3354
1 51146U 22005AU  24101.54344111  .00000766  00000+0  66189-4 0  9999
2 51146  53.2191 193.2343 0001368  98.9321 261.1826 15.08848029124452
STARLINK-31050
1 58546U 23192R   24101.18910179  .00029040  00000+0  10562-2 0  9999
2 58546  53.1585  66.3694 0001242  84.2456 275.8685 15.28044490 20188
STARLINK-4535
1 53392U 22097E   24101.20347500  .00000194  00000+0  30261-4 0  9990
2 53392  53.2194  19.7440 0001330  84.2581 275.8563 15.08835601 92574
STARLINK-4456
1 53673U 22105AB  24101.17497613  .00000602  00000+0  52524-4 0  9999
2 53673  97.6546 342.9985 0001192 108.5199 251.6155 15.00452598 88717
STARLINK-2471
1 48129U 21027AP  24101.16738460  .00000691  00000+0  65304-4 0  9996
2 48129  53.0546  67.4027 0001491  87.0854 273.0306 15.06406352166738
STARLINK-2696
1 48484U 21040BJ  24101.26419070  .00000128  00000+0  27508-4 0  9998
2 48484  53.0551  97.3263 0001433  91.3653 268.7500 15.06394380162351
STARLINK-6121
1 56129U 23046AP  24101.56322573  .00000193  00000+0  29373-4 0  9999
2 56129  43.0031 287.6721 0001257 275.9540  84.1159 15.02537182 58337
STARLINK-2381
1 47800U 21018P   24101.45307251  .00002353  00000+0  17681-3 0  9994
2 47800  53.0532 126.1213 0001216  83.8694 276.2434 15.06394740171302
STARLINK-1292
1 45394U 20019AL  24100.86192901  .00000697  00000+0  65673-4 0  9992
2 45394  53.0568  43.7762 0001390  91.0736 269.0412 15.06409651224416
STARLINK-30231
1 57514U 23113V   24101.58045854  .00001252  00000+0  10772-3 0  9998
2 57514  43.0025 210.8944 0001340 268.4084  91.6605 15.02538633 38640
STARLINK-5368
1 54840U 22177W   24100.96522008  .00000455  00000+0  48760-4 0  9991
2 54840  43.0016 329.6061 0000998 268.7418  91.3310 15.02545454 70870
STARLINK-31027
1 58720U 24002R   24101.53260638  .00002273  00000+0  17808-3 0  9991
2 58720  53.1592 156.6162 0001502  93.6519 266.4643 15.04934369 16065
STARLINK-6323
1 56524U 23065X   24101.24608602  .00001772  00000+0  14619-3 0  9994
2 56524  43.0042  45.2318 0001169 261.0596  99.0114 15.02539197 50782
STARLINK-30203
1 57498U 23113D   24100.69627294  .00002118  00000+0  17184-3 0  9990
2 57498  43.0036 215.4524 0001520 270.5891  89.4777 15.02537443 38539
